start=new Date('2022-01-13T00:00:00.000Z').valueOf();
sats=[{"SITE":null,"BSTAR":"-0.00213960000000","MEAN_ELEMENT_THEORY":"SGP4","LAUNCH_DATE":null,"MEAN_ANOMALY":"320.6866","MEAN_MOTION_DDOT":"0.0002424500000","PERIAPSIS":"261.742","EPOCH":"2022-01-12T16:00:00.999936","OBJECT_ID":"2022-001AW","FILE":"3270656","MEAN_MOTION":"15.93385029","PERIOD":"90.374","REF_FRAME":"TEME","REV_AT_EPOCH":"213","GP_ID":"193710923","ECCENTRICITY":"0.00465870","APOAPSIS":"323.898","MEAN_MOTION_DOT":"-0.00872372","INCLINATION":"53.2175","OBJECT_NAME":"STARLINK-3319","OBJECT_TYPE":"PAYLOAD","EPHEMERIS_TYPE":"0","NORAD_CAT_ID":"50847","COUNTRY_CODE":null,"RA_OF_ASC_NODE":"171.3194","ELEMENT_SET_NO":"999","CLASSIFICATION_TYPE":"U","RCS_SIZE":null,"DECAY_DATE":null,"TLE_LINE1":"1 50847U 22001AW  22012.66667824 -.00872372  24245-3 -21396-2 0  9995","ARG_OF_PERICENTER":"182.2401","CENTER_NAME":"EARTH","SEMIMAJOR_AXIS":"6670.955","TIME_SYSTEM":"UTC","TLE_LINE2":"2 50847  53.2175 171.3194 0046587 182.2401 320.6866 15.93385029  2135"},{"COUNTRY_CODE":null,"RA_OF_ASC_NODE":"171.3162","APOAPSIS":"323.630","GP_ID":"193710169","ECCENTRICITY":"0.00465460","EPHEMERIS_TYPE":"0","OBJECT_TYPE":"PAYLOAD","OBJECT_NAME":"STARLINK-3315","NORAD_CAT_ID":"50848","MEAN_MOTION_DOT":"-0.00871741","INCLINATION":"53.2175","CLASSIFICATION_TYPE":"U","RCS_SIZE":null,"ELEMENT_SET_NO":"999","ARG_OF_PERICENTER":"181.8840","CENTER_NAME":"EARTH","TLE_LINE1":"1 50848U 22001AX  22012.66667824 -.00871741  24234-3 -21283-2 0  9998","DECAY_DATE":null,"TLE_LINE2":"2 50848  53.2175 171.3162 0046546 181.8840 322.5859 15.93470718  2210","SEMIMAJOR_AXIS":"6670.716","TIME_SYSTEM":"UTC","LAUNCH_DATE":null,"SITE":null,"MEAN_ELEMENT_THEORY":"SGP4","BSTAR":"-0.00212830000000","MEAN_MOTION_DDOT":"0.0002423400000","MEAN_ANOMALY":"322.5859","OBJECT_ID":"2022-001AX","FILE":"3270623","PERIAPSIS":"261.531","EPOCH":"2022-01-12T16:00:00.999936","REV_AT_EPOCH":"221","MEAN_MOTION":"15.93470718","REF_FRAME":"TEME","PERIOD":"90.369"},{"MEAN_ANOMALY":"320.9014","MEAN_MOTION_DDOT":"0.0002424200000","SITE":null,"MEAN_ELEMENT_THEORY":"SGP4","BSTAR":"-0.00213610000000","LAUNCH_DATE":null,"MEAN_MOTION":"15.93438856","REF_FRAME":"TEME","PERIOD":"90.371","REV_AT_EPOCH":"213","PERIAPSIS":"261.838","EPOCH":"2022-01-12T16:00:00.999936","OBJECT_ID":"2022-001AY","FILE":"3270623","ELEMENT_SET_NO":"999","CLASSIFICATION_TYPE":"U","RCS_SIZE":null,"APOAPSIS":"323.502","GP_ID":"193710377","ECCENTRICITY":"0.00462190","NORAD_CAT_ID":"50849","OBJECT_TYPE":"PAYLOAD","OBJECT_NAME":"STARLINK-3311","EPHEMERIS_TYPE":"0","MEAN_MOTION_DOT":"-0.00872069","INCLINATION":"53.2175","COUNTRY_CODE":null,"RA_OF_ASC_NODE":"171.3175","SEMIMAJOR_AXIS":"6670.805","TIME_SYSTEM":"UTC","TLE_LINE2":"2 50849  53.2175 171.3175 0046219 182.9807 320.9014 15.93438856  2130","DECAY_DATE":null,"TLE_LINE1":"1 50849U 22001AY  22012.66667824 -.00872069  24242-3 -21361-2 0  9999","ARG_OF_PERICENTER":"182.9807","CENTER_NAME":"EARTH"},{"LAUNCH_DATE":null,"BSTAR":"-0.00214640000000","MEAN_ELEMENT_THEORY":"SGP4","SITE":null,"MEAN_MOTION_DDOT":"0.0002426700000","MEAN_ANOMALY":"321.6254","FILE":"3270623","OBJECT_ID":"2022-001AZ","EPOCH":"2022-01-12T16:00:00.999936","PERIAPSIS":"262.772","REV_AT_EPOCH":"221","PERIOD":"90.368","REF_FRAME":"TEME","MEAN_MOTION":"15.93488574","RA_OF_ASC_NODE":"171.3151","COUNTRY_CODE":null,"MEAN_MOTION_DOT":"-0.00872322","INCLINATION":"53.2175","OBJECT_TYPE":"PAYLOAD","NORAD_CAT_ID":"50850","OBJECT_NAME":"STARLINK-3312","EPHEMERIS_TYPE":"0","ECCENTRICITY":"0.00446120","GP_ID":"193710379","APOAPSIS":"322.290","RCS_SIZE":null,"CLASSIFICATION_TYPE":"U","ELEMENT_SET_NO":"999","CENTER_NAME":"EARTH","ARG_OF_PERICENTER":"183.3892","TLE_LINE1":"1 50850U 22001AZ  22012.66667824 -.00872322  24267-3 -21464-2 0  9994","DECAY_DATE":null,"TLE_LINE2":"2 50850  53.2175 171.3151 0044612 183.3892 321.6254 15.93488574  2215","SEMIMAJOR_AXIS":"6670.666","TIME_SYSTEM":"UTC"},{"LAUNCH_DATE":null,"MEAN_ELEMENT_THEORY":"SGP4","BSTAR":"-0.00212740000000","SITE":null,"MEAN_MOTION_DDOT":"0.0002424400000","MEAN_ANOMALY":"322.2733","FILE":"3270623","OBJECT_ID":"2022-001BA","EPOCH":"2022-01-12T16:00:00.999936","PERIAPSIS":"261.502","REV_AT_EPOCH":"218","REF_FRAME":"TEME","PERIOD":"90.368","MEAN_MOTION":"15.93481663","RA_OF_ASC_NODE":"171.3158","COUNTRY_CODE":null,"EPHEMERIS_TYPE":"0","OBJECT_TYPE":"PAYLOAD","NORAD_CAT_ID":"50851","OBJECT_NAME":"STARLINK-3314","MEAN_MOTION_DOT":"-0.00871893","INCLINATION":"53.2175","APOAPSIS":"323.598","ECCENTRICITY":"0.00465440","GP_ID":"193710167","RCS_SIZE":null,"CLASSIFICATION_TYPE":"U","ELEMENT_SET_NO":"999","CENTER_NAME":"EARTH","ARG_OF_PERICENTER":"182.3830","TLE_LINE1":"1 50851U 22001BA  22012.66667824 -.00871893  24244-3 -21274-2 0  9991","DECAY_DATE":null,"TLE_LINE2":"2 50851  53.2175 171.3158 0046544 182.3830 322.2733 15.93481663  2187","SEMIMAJOR_AXIS":"6670.685","TIME_SYSTEM":"UTC"}];
